CCSDS_OMM_VERS = 2.0
CREATION_DATE  = 
ORIGINATOR     = 

OBJECT_NAME    = STARLINK-35969
OBJECT_ID      = 2025-265H
CENTER_NAME    = EARTH
REF_FRAME      = TEME
TIME_SYSTEM    = UTC
MEAN_ELEMENT_THEORY = SGP/SGP4

EPOCH          = 2025-12-03T04:00:01.998720
MEAN_MOTION    = 15.75059414
ECCENTRICITY   = .0001666
INCLINATION    = 42.9999
RA_OF_ASC_NODE = 110.8229
ARG_OF_PERICENTER = 272.1617
MEAN_ANOMALY   = 29.3237

EPHEMERIS_TYPE = 0
CLASSIFICATION_TYPE = U
NORAD_CAT_ID   = 66523
ELEMENT_SET_NO = 999
REV_AT_EPOCH   = 345
BSTAR          = -.10601E-4
MEAN_MOTION_DOT = -.2107E-4
MEAN_MOTION_DDOT = 0

CCSDS_OMM_VERS = 2.0
CREATION_DATE  = 
ORIGINATOR     = 

OBJECT_NAME    = STARLINK-35687
OBJECT_ID      = 2025-265J
CENTER_NAME    = EARTH
REF_FRAME      = TEME
TIME_SYSTEM    = UTC
MEAN_ELEMENT_THEORY = SGP/SGP4

EPOCH          = 2025-12-03T04:00:01.998720
MEAN_MOTION    = 15.75061352
ECCENTRICITY   = .0001688
INCLINATION    = 42.9998
RA_OF_ASC_NODE = 110.8178
ARG_OF_PERICENTER = 261.4135
MEAN_ANOMALY   = 41.9864

EPHEMERIS_TYPE = 0
CLASSIFICATION_TYPE = U
NORAD_CAT_ID   = 66524
ELEMENT_SET_NO = 999
REV_AT_EPOCH   = 345
BSTAR          = .79532E-4
MEAN_MOTION_DOT = .11768E-3
MEAN_MOTION_DDOT = 0

CCSDS_OMM_VERS = 2.0
CREATION_DATE  = 
ORIGINATOR     = 

OBJECT_NAME    = STARLINK-35975
OBJECT_ID      = 2025-265K
CENTER_NAME    = EARTH
REF_FRAME      = TEME
TIME_SYSTEM    = UTC
MEAN_ELEMENT_THEORY = SGP/SGP4

EPOCH          = 2025-12-03T04:00:01.998720
MEAN_MOTION    = 15.75062225
ECCENTRICITY   = .0001772
INCLINATION    = 42.9997
RA_OF_ASC_NODE = 110.8135
ARG_OF_PERICENTER = 258.1739
MEAN_ANOMALY   = 47.1417

EPHEMERIS_TYPE = 0
CLASSIFICATION_TYPE = U
NORAD_CAT_ID   = 66525
ELEMENT_SET_NO = 999
REV_AT_EPOCH   = 345
BSTAR          = .7087E-4
MEAN_MOTION_DOT = .10433E-3
MEAN_MOTION_DDOT = 0

CCSDS_OMM_VERS = 2.0
CREATION_DATE  = 
ORIGINATOR     = 

OBJECT_NAME    = STARLINK-35932
OBJECT_ID      = 2025-265L
CENTER_NAME    = EARTH
REF_FRAME      = TEME
TIME_SYSTEM    = UTC
MEAN_ELEMENT_THEORY = SGP/SGP4

EPOCH          = 2025-12-03T04:00:01.998720
MEAN_MOTION    = 15.74853995
ECCENTRICITY   = .0002233
INCLINATION    = 42.9997
RA_OF_ASC_NODE = 110.8089
ARG_OF_PERICENTER = 277.4239
MEAN_ANOMALY   = 29.7964

EPHEMERIS_TYPE = 0
CLASSIFICATION_TYPE = U
NORAD_CAT_ID   = 66526
ELEMENT_SET_NO = 999
REV_AT_EPOCH   = 334
BSTAR          = .19762E-2
MEAN_MOTION_DOT = .312065E-2
MEAN_MOTION_DDOT = 0

CCSDS_OMM_VERS = 2.0
CREATION_DATE  = 
ORIGINATOR     = 

OBJECT_NAME    = STARLINK-35935
OBJECT_ID      = 2025-265M
CENTER_NAME    = EARTH
REF_FRAME      = TEME
TIME_SYSTEM    = UTC
MEAN_ELEMENT_THEORY = SGP/SGP4

EPOCH          = 2025-12-03T04:00:01.998720
MEAN_MOTION    = 15.75098895
ECCENTRICITY   = .0001168
INCLINATION    = 42.9997
RA_OF_ASC_NODE = 110.8042
ARG_OF_PERICENTER = 267.9611
MEAN_ANOMALY   = 41.1872

EPHEMERIS_TYPE = 0
CLASSIFICATION_TYPE = U
NORAD_CAT_ID   = 66527
ELEMENT_SET_NO = 999
REV_AT_EPOCH   = 345
BSTAR          = -.1765E-2
MEAN_MOTION_DOT = -.263964E-2
MEAN_MOTION_DDOT = 0

CCSDS_OMM_VERS = 2.0
CREATION_DATE  = 
ORIGINATOR     = 

OBJECT_NAME    = STARLINK-35928
OBJECT_ID      = 2025-265N
CENTER_NAME    = EARTH
REF_FRAME      = TEME
TIME_SYSTEM    = UTC
MEAN_ELEMENT_THEORY = SGP/SGP4

EPOCH          = 2025-12-03T04:00:01.998720
MEAN_MOTION    = 15.74981733
ECCENTRICITY   = .0001688
INCLINATION    = 42.9999
RA_OF_ASC_NODE = 110.7997
ARG_OF_PERICENTER = 268.0344
MEAN_ANOMALY   = 42.9647

EPHEMERIS_TYPE = 0
CLASSIFICATION_TYPE = U
NORAD_CAT_ID   = 66528
ELEMENT_SET_NO = 999
REV_AT_EPOCH   = 345
BSTAR          = .11213E-2
MEAN_MOTION_DOT = .17494E-2
MEAN_MOTION_DDOT = 0

CCSDS_OMM_VERS = 2.0
CREATION_DATE  = 
ORIGINATOR     = 

OBJECT_NAME    = STARLINK-35933
OBJECT_ID      = 2025-265P
CENTER_NAME    = EARTH
REF_FRAME      = TEME
TIME_SYSTEM    = UTC
MEAN_ELEMENT_THEORY = SGP/SGP4

EPOCH          = 2025-12-03T04:00:01.998720
MEAN_MOTION    = 15.74959660
ECCENTRICITY   = .0001799
INCLINATION    = 42.9997
RA_OF_ASC_NODE = 110.7939
ARG_OF_PERICENTER = 275.7004
MEAN_ANOMALY   = 37.4281

EPHEMERIS_TYPE = 0
CLASSIFICATION_TYPE = U
NORAD_CAT_ID   = 66529
ELEMENT_SET_NO = 999
REV_AT_EPOCH   = 345
BSTAR          = .26372E-3
MEAN_MOTION_DOT = .40085E-3
MEAN_MOTION_DDOT = 0

CCSDS_OMM_VERS = 2.0
CREATION_DATE  = 
ORIGINATOR     = 

OBJECT_NAME    = STARLINK-35961
OBJECT_ID      = 2025-265Q
CENTER_NAME    = EARTH
REF_FRAME      = TEME
TIME_SYSTEM    = UTC
MEAN_ELEMENT_THEORY = SGP/SGP4

EPOCH          = 2025-12-03T04:00:01.998720
MEAN_MOTION    = 15.75066266
ECCENTRICITY   = .0001632
INCLINATION    = 42.9999
RA_OF_ASC_NODE = 110.7895
ARG_OF_PERICENTER = 266.0375
MEAN_ANOMALY   = 48.8687

EPHEMERIS_TYPE = 0
CLASSIFICATION_TYPE = U
NORAD_CAT_ID   = 66530
ELEMENT_SET_NO = 999
REV_AT_EPOCH   = 345
BSTAR          = -.21592E-3
MEAN_MOTION_DOT = -.33553E-3
MEAN_MOTION_DDOT = 0

CCSDS_OMM_VERS = 2.0
CREATION_DATE  = 
ORIGINATOR     = 

OBJECT_NAME    = STARLINK-35960
OBJECT_ID      = 2025-265R
CENTER_NAME    = EARTH
REF_FRAME      = TEME
TIME_SYSTEM    = UTC
MEAN_ELEMENT_THEORY = SGP/SGP4

EPOCH          = 2025-12-03T04:00:01.998720
MEAN_MOTION    = 15.75056024
ECCENTRICITY   = .0001658
INCLINATION    = 42.9998
RA_OF_ASC_NODE = 110.7843
ARG_OF_PERICENTER = 262.3109
MEAN_ANOMALY   = 54.5069

EPHEMERIS_TYPE = 0
CLASSIFICATION_TYPE = U
NORAD_CAT_ID   = 66531
ELEMENT_SET_NO = 999
REV_AT_EPOCH   = 345
BSTAR          = .11468E-3
MEAN_MOTION_DOT = .17187E-3
MEAN_MOTION_DDOT = 0

CCSDS_OMM_VERS = 2.0
CREATION_DATE  = 
ORIGINATOR     = 

OBJECT_NAME    = STARLINK-35914
OBJECT_ID      = 2025-265S
CENTER_NAME    = EARTH
REF_FRAME      = TEME
TIME_SYSTEM    = UTC
MEAN_ELEMENT_THEORY = SGP/SGP4

EPOCH          = 2025-12-03T04:00:01.998720
MEAN_MOTION    = 15.75066443
ECCENTRICITY   = .0001794
INCLINATION    = 42.9997
RA_OF_ASC_NODE = 110.7797
ARG_OF_PERICENTER = 264.0659
MEAN_ANOMALY   = 54.6658

EPHEMERIS_TYPE = 0
CLASSIFICATION_TYPE = U
NORAD_CAT_ID   = 66532
ELEMENT_SET_NO = 999
REV_AT_EPOCH   = 345
BSTAR          = .54243E-4
MEAN_MOTION_DOT = .7872E-4
MEAN_MOTION_DDOT = 0

CCSDS_OMM_VERS = 2.0
CREATION_DATE  = 
ORIGINATOR     = 

OBJECT_NAME    = STARLINK-35707
OBJECT_ID      = 2025-265T
CENTER_NAME    = EARTH
REF_FRAME      = TEME
TIME_SYSTEM    = UTC
MEAN_ELEMENT_THEORY = SGP/SGP4

EPOCH          = 2025-12-03T04:00:01.998720
MEAN_MOTION    = 15.75049587
ECCENTRICITY   = .0001642
INCLINATION    = 42.9999
RA_OF_ASC_NODE = 110.7750
ARG_OF_PERICENTER = 269.0424
MEAN_ANOMALY   = 51.6155

EPHEMERIS_TYPE = 0
CLASSIFICATION_TYPE = U
NORAD_CAT_ID   = 66533
ELEMENT_SET_NO = 999
REV_AT_EPOCH   = 345
BSTAR          = .13778E-3
MEAN_MOTION_DOT = .20748E-3
MEAN_MOTION_DDOT = 0

CCSDS_OMM_VERS = 2.0
CREATION_DATE  = 
ORIGINATOR     = 

OBJECT_NAME    = STARLINK-35976
OBJECT_ID      = 2025-265U
CENTER_NAME    = EARTH
REF_FRAME      = TEME
TIME_SYSTEM    = UTC
MEAN_ELEMENT_THEORY = SGP/SGP4

EPOCH          = 2025-12-03T04:00:01.998720
MEAN_MOTION    = 15.75072333
ECCENTRICITY   = .0001869
INCLINATION    = 43.0001
RA_OF_ASC_NODE = 110.7706
ARG_OF_PERICENTER = 251.0592
MEAN_ANOMALY   = 71.5072

EPHEMERIS_TYPE = 0
CLASSIFICATION_TYPE = U
NORAD_CAT_ID   = 66534
ELEMENT_SET_NO = 999
REV_AT_EPOCH   = 345
BSTAR          = -.96629E-5
MEAN_MOTION_DOT = -.1964E-4
MEAN_MOTION_DDOT = 0

