STARLINK-35969          
1 66523U 25265H   25337.16668980 -.00002107  00000+0 -10601-4 0  9999
2 66523  42.9999 110.8229 0001666 272.1617  29.3237 15.75059414  3453
STARLINK-35687          
1 66524U 25265J   25337.16668980  .00011768  00000+0  79532-4 0  9999
2 66524  42.9998 110.8178 0001688 261.4135  41.9864 15.75061352  3456
STARLINK-35975          
1 66525U 25265K   25337.16668980  .00010433  00000+0  70870-4 0  9994
2 66525  42.9997 110.8135 0001772 258.1739  47.1417 15.75062225  3458
STARLINK-35932          
1 66526U 25265L   25337.16668980  .00312065  00000+0  19762-2 0  9992
2 66526  42.9997 110.8089 0002233 277.4239  29.7964 15.74853995  3341
STARLINK-35935          
1 66527U 25265M   25337.16668980 -.00263964  00000+0 -17650-2 0  9992
2 66527  42.9997 110.8042 0001168 267.9611  41.1872 15.75098895  3454
STARLINK-35928          
1 66528U 25265N   25337.16668980  .00174940  00000+0  11213-2 0  9995
2 66528  42.9999 110.7997 0001688 268.0344  42.9647 15.74981733  3457
STARLINK-35933          
1 66529U 25265P   25337.16668980  .00040085  00000+0  26372-3 0  9991
2 66529  42.9997 110.7939 0001799 275.7004  37.4281 15.74959660  3450
STARLINK-35961          
1 66530U 25265Q   25337.16668980 -.00033553  00000+0 -21592-3 0  9996
2 66530  42.9999 110.7895 0001632 266.0375  48.8687 15.75066266  3453
STARLINK-35960          
1 66531U 25265R   25337.16668980  .00017187  00000+0  11468-3 0  9991
2 66531  42.9998 110.7843 0001658 262.3109  54.5069 15.75056024  3457
STARLINK-35914          
1 66532U 25265S   25337.16668980  .00007872  00000+0  54243-4 0  9991
2 66532  42.9997 110.7797 0001794 264.0659  54.6658 15.75066443  3456
STARLINK-35707          
1 66533U 25265T   25337.16668980  .00020748  00000+0  13778-3 0  9996
2 66533  42.9999 110.7750 0001642 269.0424  51.6155 15.75049587  3454
STARLINK-35976          
1 66534U 25265U   25337.16668980 -.00001964  00000+0 -96629-5 0  9996
2 66534  43.0001 110.7706 0001869 251.0592  71.5072 15.75072333  3454
